{
    "links": {
        "self": "http://www.neowsapp.com/rest/v1/neo/3789380?api_key=iIulBulltgU6a56xZRHN4H3l9WmuAYTsLGpBGhQ2"
    },
    "id": "3789380",
    "neo_reference_id": "3789380",
    "name": "(2017 VL13)",
    "designation": "2017 VL13",
    "nasa_jpl_url": "http://ssd.jpl.nasa.gov/sbdb.cgi?sstr=3789380",
    "absolute_magnitude_h": 24.7,
    "estimated_diameter": {
        "kilometers": {
            "estimated_diameter_min": 0.0305179233,
            "estimated_diameter_max": 0.0682401509
        },
        "meters": {
            "estimated_diameter_min": 30.5179232594,
            "estimated_diameter_max": 68.2401509401
        },
        "miles": {
            "estimated_diameter_min": 0.0189629525,
            "estimated_diameter_max": 0.0424024508
        },
        "feet": {
            "estimated_diameter_min": 100.1244233463,
            "estimated_diameter_max": 223.8850168104
        }
    },
    "is_potentially_hazardous_asteroid": false,
    "close_approach_data": [
        {
            "close_approach_date": "2017-10-30",
            "close_approach_date_full": "2017-Oct-30 09:31",
            "epoch_date_close_approach": 1509355860000,
            "relative_velocity": {
                "kilometers_per_second": "13.5326470052",
                "kilometers_per_hour": "48717.529218702",
                "miles_per_hour": "30271.1780859207"
            },
            "miss_distance": {
                "astronomical": "0.0407277574",
                "lunar": "15.8430976286",
                "kilometers": "6092785.756916738",
                "miles": "3785881.5156894644"
            },
            "orbiting_body": "Earth"
        }
    ],
    "orbital_data": {
        "orbit_id": "2",
        "orbit_determination_date": "2019-07-19 05:26:24",
        "first_observation_date": "2017-11-13",
        "last_observation_date": "2017-11-16",
        "data_arc_in_days": 3,
        "observations_used": 25,
        "orbit_uncertainty": "9",
        "minimum_orbit_intersection": ".0195161",
        "jupiter_tisserand_invariant": "3.700",
        "epoch_osculation": "2458072.5",
        "eccentricity": ".5529149048398875",
        "semi_major_axis": "1.938683138177543",
        "inclination": "2.653606233395581",
        "ascending_node_longitude": "238.0534928663208",
        "orbital_period": "985.9585930026609",
        "perihelion_distance": ".8667563353174123",
        "perihelion_argument": "104.5723877818651",
        "aphelion_distance": "3.010609941037673",
        "perihelion_time": "2458018.792134943435",
        "mean_anomaly": "19.6101860236145",
        "mean_motion": ".3651268953431885",
        "equinox": "J2000",
        "orbit_class": {
            "orbit_class_type": "APO",
            "orbit_class_description": "Near-Earth asteroid orbits which cross the Earth’s orbit similar to that of 1862 Apollo",
            "orbit_class_range": "a (semi-major axis) > 1.0 AU; q (perihelion) < 1.017 AU"
        }
    },
    "is_sentry_object": false
}